[{"OBJECT_NAME":"STARLINK-35853","OBJECT_ID":"2025-303Q","EPOCH":"2026-03-08T16:54:01.047456","MEAN_MOTION":15.27576586,"ECCENTRICITY":0.00012497,"INCLINATION":42.9964,"RA_OF_ASC_NODE":316.3452,"ARG_OF_PERICENTER":280.8737,"MEAN_ANOMALY":79.1974,"EPHEMERIS_TYPE":0,"CLASSIFICATION_TYPE":"U","NORAD_CAT_ID":67177,"ELEMENT_SET_NO":999,"REV_AT_EPOCH":1258,"BSTAR":0.00053714083,"MEAN_MOTION_DOT":0.00014547,"MEAN_MOTION_DDOT":0},{"OBJECT_NAME":"CZ-6A DEB","OBJECT_ID":"2022-151ME","EPOCH":"2026-03-09T17:07:50.636064","MEAN_MOTION":15.20556855,"ECCENTRICITY":0.00283971,"INCLINATION":98.6182,"RA_OF_ASC_NODE":149.2426,"ARG_OF_PERICENTER":178.5587,"MEAN_ANOMALY":181.5732,"EPHEMERIS_TYPE":0,"CLASSIFICATION_TYPE":"U","NORAD_CAT_ID":54578,"ELEMENT_SET_NO":999,"REV_AT_EPOCH":10518,"BSTAR":0.0077423675,"MEAN_MOTION_DOT":0.00175116,"MEAN_MOTION_DDOT":0}]
